{
  "01": [
    {"name": "Myitkyina", "mm_name": "မြစ်ကြီးနား", "postal_code": "01011"},
    {"name": "Waingmaw", "mm_name": "ဝိုင်းမော်", "postal_code": "01021"},
    {"name": "Injangyang", "mm_name": "အင်ဂျန်းယန်", "postal_code": "01031"},
    {"name": "Tanai", "mm_name": "တနိုင်း", "postal_code": "01041"},
    {"name": "Chipwi", "mm_name": "ချီဖွေ", "postal_code": "01051"},
    {"name": "Hsawlaw", "mm_name": "ဆော့လော်", "postal_code": "01061"},
    {"name": "Bhamo", "mm_name": "ဗန်းမော်", "postal_code": "01071"},
    {"name": "Shwegu", "mm_name": "ရွှေကူ", "postal_code": "01081"},
    {"name": "Mogaung", "mm_name": "မိုးကောင်း", "postal_code": "01091"},
    {"name": "Mohnyin", "mm_name": "မိုးညှင်း", "postal_code": "01101"},
    {"name": "Putao", "mm_name": "ပူတာအို", "postal_code": "01111"},
    {"name": "Khaunglanhpu", "mm_name": "ခေါင်လန်ဖူး", "postal_code": "01121"},
    {"name": "Machanbaw", "mm_name": "မချမ်းဘော", "postal_code": "01131"},
    {"name": "Nogmung", "mm_name": "နောင်မွန်း", "postal_code": "01141"},
    {"name": "Pannandin", "mm_name": "ပန်နန်းဒင်", "postal_code": "01151"},
    {"name": "Sumprabum", "mm_name": "ဆွမ်ပရာဘွမ်", "postal_code": "01161"}
  ],
  "02": [
    {"name": "Loikaw", "mm_name": "လွိုင်ကော်", "postal_code": "02011"},
    {"name": "Demoso", "mm_name": "ဒီမောဆို", "postal_code": "02021"},
    {"name": "Hpruso", "mm_name": "ဖရူဆို", "postal_code": "02031"},
    {"name": "Shadaw", "mm_name": "ရှားတော", "postal_code": "02041"},
    {"name": "Bawlakhe", "mm_name": "ဘော်လခဲ", "postal_code": "02051"},
    {"name": "Hpasawng", "mm_name": "ဖားဆောင်း", "postal_code": "02061"},
    {"name": "Mese", "mm_name": "မယ်စဲ့", "postal_code": "02071"}
  ],
  "03": [
    {"name": "Hpa-an", "mm_name": "ဘားအံ", "postal_code": "03011"},
    {"name": "Hlaingbwe", "mm_name": "လှိုင်းဘွဲ့", "postal_code": "03021"},
    {"name": "Hpapun", "mm_name": "ဖာပွန်", "postal_code": "03031"},
    {"name": "Thandaunggyi", "mm_name": "သံတောင်ကြီး", "postal_code": "03041"},
    {"name": "Myawaddy", "mm_name": "မြဝတီ", "postal_code": "03051"},
    {"name": "Kawkareik", "mm_name": "ကော့ကရိတ်", "postal_code": "03061"},
    {"name": "Kyain Seikgyi", "mm_name": "ကြာအင်းဆိပ်ကြီး", "postal_code": "03071"}
  ],
  "04": [
    {"name": "Hakha", "mm_name": "ဟားခါး", "postal_code": "04011"},
    {"name": "Falam", "mm_name": "ဖလမ်း", "postal_code": "04021"},
    {"name": "Tedim", "mm_name": "တီးတိန်", "postal_code": "04031"},
    {"name": "Tonzang", "mm_name": "တွန်းဇံ", "postal_code": "04041"},
    {"name": "Mindat", "mm_name": "မင်းတပ်", "postal_code": "04051"},
    {"name": "Matupi", "mm_name": "မတူပီ", "postal_code": "04061"},
    {"name": "Paletwa", "mm_name": "ပလက်ဝ", "postal_code": "04071"},
    {"name": "Kanpetlet", "mm_name": "ကန်ပက်လက်", "postal_code": "04081"},
    {"name": "Thantlang", "mm_name": "ထန်တလန်", "postal_code": "04091"}
  ],
  "05": [
    {"name": "Sagaing", "mm_name": "စစ်ကိုင်း", "postal_code": "05011"},
    {"name": "Myaung", "mm_name": "မြောင်", "postal_code": "05021"},
    {"name": "Shwebo", "mm_name": "ရွှေဘို", "postal_code": "05031"},
    {"name": "Khin-U", "mm_name": "ခင်ဦး", "postal_code": "05041"},
    {"name": "Wetlet", "mm_name": "ဝက်လက်", "postal_code": "05051"},
    {"name": "Kyunhla", "mm_name": "ကျွန်းလှ", "postal_code": "05061"},
    {"name": "Ye-U", "mm_name": "ရေဦး", "postal_code": "05071"},
    {"name": "Tabayin", "mm_name": "ဒီပဲယင်း", "postal_code": "05081"},
    {"name": "Taze", "mm_name": "တန့်ဆည်", "postal_code": "05091"},
    {"name": "Mawlaik", "mm_name": "မော်လိုက်", "postal_code": "05101"},
    {"name": "Paungbyin", "mm_name": "ပေါက်နွယ်", "postal_code": "05111"},
    {"name": "Kalewa", "mm_name": "ကလေးဝ", "postal_code": "05121"},
    {"name": "Katha", "mm_name": "ကသာ", "postal_code": "05131"},
    {"name": "Indaw", "mm_name": "အင်းတော်", "postal_code": "05141"},
    {"name": "Banmauk", "mm_name": "ဗန်းမောက်", "postal_code": "05151"},
    {"name": "Kawlin", "mm_name": "ကောလင်း", "postal_code": "05161"},
    {"name": "Wuntho", "mm_name": "ဝန်းသို", "postal_code": "05171"},
    {"name": "Pinlebu", "mm_name": "ပင်လည်ဘူး", "postal_code": "05181"},
    {"name": "Monywa", "mm_name": "မုံရွာ", "postal_code": "05191"},
    {"name": "Budalin", "mm_name": "ဘုတလင်", "postal_code": "05201"},
    {"name": "Ayadaw", "mm_name": "အရာတော်", "postal_code": "05211"},
    {"name": "Chaung-U", "mm_name": "ချောင်းဦး", "postal_code": "05221"},
    {"name": "Kani", "mm_name": "ကနီ", "postal_code": "05231"},
    {"name": "Salingyi", "mm_name": "စလင်းညို", "postal_code": "05241"},
    {"name": "Yinmabin", "mm_name": "ယင်းမာပင် ", "postal_code": "05251"},
    {"name": "Pale", "mm_name": "ပုလဲ", "postal_code": "05261"},
    {"name": "Tamu", "mm_name": "တမူး", "postal_code": "05271"},
    {"name": "Hkamti", "mm_name": "ခန္တီး", "postal_code": "05281"},
    {"name": "Nanyun", "mm_name": "နန်းယွန်း", "postal_code": "05291"},
    {"name": "Lahe", "mm_name": "လဟယ်", "postal_code": "05301"},
    {"name": "Homalin", "mm_name": "ဟုမ္မလင်း", "postal_code": "05311"}
  ],
  "06": [
    {"name": "Dawei", "mm_name": "ထားဝယ်", "postal_code": "06011"},
    {"name": "Launglon", "mm_name": "လောင်းလုံး", "postal_code": "06021"},
    {"name": "Thayetchaung", "mm_name": "သရက်ချောင်း", "postal_code": "06031"},
    {"name": "Yebyu", "mm_name": "ရေးဗြူ", "postal_code": "06041"},
    {"name": "Myeik", "mm_name": "မြိတ်", "postal_code": "06051"},
    {"name": "Kyunsu", "mm_name": "ကျွန်းစု", "postal_code": "06061"},
    {"name": "Palaw", "mm_name": "ပုလော", "postal_code": "06071"},
    {"name": "Tanintharyi", "mm_name": "တနင်္သာရီ", "postal_code": "06081"},
    {"name": "Kawthoung", "mm_name": "ကော့သောင်း", "postal_code": "06091"},
    {"name": "Bokpyin", "mm_name": "ဘုတ်ပြင်း", "postal_code": "06101"}
  ],
  "07": [
    {"name": "Bago", "mm_name": "ပဲခူး", "postal_code": "07011"},
    {"name": "Thanatpin", "mm_name": "သနပ်ပင်", "postal_code": "07021"},
    {"name": "Kawa", "mm_name": "ကဝ", "postal_code": "07031"},
    {"name": "Waw", "mm_name": "ဝေါ", "postal_code": "07041"},
    {"name": "Nyaunglebin", "mm_name": "ညောင်လေးပင်", "postal_code": "07051"},
    {"name": "Kyauktaga", "mm_name": "ကျောက်တံခါး", "postal_code": "07061"},
    {"name": "Daik-U", "mm_name": "ဒိုက်ဦး", "postal_code": "07071"},
    {"name": "Shwegyin", "mm_name": "ရွှေကျင်", "postal_code": "07081"},
    {"name": "Pyay", "mm_name": "ပြည်", "postal_code": "07091"},
    {"name": "Paukkhaung", "mm_name": "ပေါက်ခေါင်း", "postal_code": "07101"},
    {"name": "Padaung", "mm_name": "ပုတီးကုန်း", "postal_code": "07111"},
    {"name": "Paungde", "mm_name": "ပေါင်းတည်", "postal_code": "07121"},
    {"name": "Thegon", "mm_name": "သဲကုန်း", "postal_code": "07131"},
    {"name": "Shwedaung", "mm_name": "ရွှေတောင်", "postal_code": "07141"},
    {"name": "Taungoo", "mm_name": "တောင်ငူ", "postal_code": "07151"},
    {"name": "Yedashe", "mm_name": "ရေတာရှည်", "postal_code": "07161"},
    {"name": "Kyaukkyi", "mm_name": "ကျောက်ကြီး", "postal_code": "07171"},
    {"name": "Oktwin", "mm_name": "အုတ်တွင်း", "postal_code": "07181"},
    {"name": "Pyu", "mm_name": "ဖြူး", "postal_code": "07191"}
  ],
  "08": [
    {"name": "Magway", "mm_name": "မကွေး", "postal_code": "08011"},
    {"name": "Yenangyaung", "mm_name": "ရေနံချောင်း", "postal_code": "08021"},
    {"name": "Chauk", "mm_name": "ချောက်", "postal_code": "08031"},
    {"name": "Taungdwingyi", "mm_name": "တောင်တွင်းကြီး", "postal_code": "08041"},
    {"name": "Myothit", "mm_name": "မြို့သစ်", "postal_code": "08051"},
    {"name": "Natmauk", "mm_name": "နတ်မောက်", "postal_code": "08061"},
    {"name": "Minbu", "mm_name": "မင်းဘူး", "postal_code": "08071"},
    {"name": "Pwintbyu", "mm_name": "ပွင့်ဖြူ", "postal_code": "08081"},
    {"name": "Ngape", "mm_name": "ငဖဲ", "postal_code": "08091"},
    {"name": "Salin", "mm_name": "စလင်း", "postal_code": "08101"},
    {"name": "Sidoktaya", "mm_name": "ဆိပ်ဖြူ", "postal_code": "08111"},
    {"name": "Myaing", "mm_name": "မြိုင်", "postal_code": "08121"},
    {"name": "Pakokku", "mm_name": "ပခုက္ကူ", "postal_code": "08131"},
    {"name": "Yesagyo", "mm_name": "ရေစကြို", "postal_code": "08141"},
    {"name": "Myauk", "mm_name": "မြောက်ဦး", "postal_code": "08151"},
    {"name": "Seikphyu", "mm_name": "ဆိပ်ဖြူ", "postal_code": "08161"},
    {"name": "Pauk", "mm_name": "ပေါက်", "postal_code": "08171"},
    {"name": "Gangaw", "mm_name": "ဂန့်ဂေါ", "postal_code": "08181"},
    {"name": "Htilin", "mm_name": "ထီးလင်း", "postal_code": "08191"},
    {"name": "Saw", "mm_name": "စော", "postal_code": "08201"}
  ],
  "09": [
    {"name": "Mandalay", "mm_name": "မန္တလေး", "postal_code": "09011", "districts": [
      {"name": "Aungmyethazan", "mm_name": "အောင်မြေသာစံ", "postal_code": "09021"},
      {"name": "Chanayethazan", "mm_name": "ချမ်းအေးသာစံ", "postal_code": "09031"},
      {"name": "Mahaaungmye", "mm_name": "မဟာအောင်မြေ", "postal_code": "09041"},
      {"name": "Chanmyathazi", "mm_name": "ချမ်းမြသာစည်", "postal_code": "09051"},
      {"name": "Pyigyidagun", "mm_name": "ပြည်ကြီးတံခွန်", "postal_code": "09061"},
      {"name": "Amarapura", "mm_name": "အမရပူရ", "postal_code": "09071"},
      {"name": "Patheingyi", "mm_name": "ပုသိမ်ကြီး", "postal_code": "09081"}
    ]},
    {"name": "Pyin Oo Lwin", "mm_name": "ပြင်ဦးလွင်", "postal_code": "09101"},
    {"name": "Kyaukse", "mm_name": "ကျောက်ဆည်", "postal_code": "09111"},
    {"name": "Sintgaing", "mm_name": "စဉ့်ကိုင်", "postal_code": "09121"},
    {"name": "Myittha", "mm_name": "မြစ်သား", "postal_code": "09131"},
    {"name": "Meiktila", "mm_name": "မိတ္ထီလာ", "postal_code": "09141"},
    {"name": "Mahlaing", "mm_name": "မလှိုင်", "postal_code": "09151"},
    {"name": "Thazi", "mm_name": "သာစည်", "postal_code": "09161"},
    {"name": "Wundwin", "mm_name": "ဝမ်းတွင်း", "postal_code": "09171"},
    {"name": "Myingyan", "mm_name": "မြင်းခြံ", "postal_code": "09181"},
    {"name": "Taungtha", "mm_name": "တောင်သာ", "postal_code": "09191"},
    {"name": "Natogyi", "mm_name": "နွားထိုးကြီး", "postal_code": "09201"},
    {"name": "Nyaung-U", "mm_name": "ညောင်ဦး", "postal_code": "09211"},
    {"name": "Kyaukpadaung", "mm_name": "ကျောက်ပန်းတောင်း", "postal_code": "09221"}
  ],
  "10": [
    {"name": "Mawlamyine", "mm_name": "မော်လမြိုင်", "postal_code": "10011"},
    {"name": "Kyaikmaraw", "mm_name": "ကျိုက်မရော", "postal_code": "10021"},
    {"name": "Chaungzon", "mm_name": "ချောင်းဆုံ", "postal_code": "10031"},
    {"name": "Thanbyuzayat", "mm_name": "သံဖြူဇရပ်", "postal_code": "10041"},
    {"name": "Mudon", "mm_name": "မုဒုံ", "postal_code": "10051"},
    {"name": "Ye", "mm_name": "ရေး", "postal_code": "10061"},
    {"name": "Kyaikto", "mm_name": "ကျိုက်ထို", "postal_code": "10071"},
    {"name": "Bilin", "mm_name": "ဘီးလင်း", "postal_code": "10081"},
    {"name": "Paung", "mm_name": "ပေါင်", "postal_code": "10091"},
    {"name": "Thaton", "mm_name": "သထုံ", "postal_code": "10101"}
  ],
  "11": [
    {"name": "Sittwe", "mm_name": "စစ်တွေ", "postal_code": "11011"},
    {"name": "Ponnagyun", "mm_name": "ပုဏ္ဏားကျွန်း", "postal_code": "11021"},
    {"name": "Pauktaw", "mm_name": "ပေါက်တော", "postal_code": "11031"},
    {"name": "Rathedaung", "mm_name": "ရသေ့တောင်", "postal_code": "11041"},
    {"name": "Kyauktaw", "mm_name": "ကျောက်တော်", "postal_code": "11051"},
    {"name": "Maungdaw", "mm_name": "မောင်တော", "postal_code": "11061"},
    {"name": "Buthidaung", "mm_name": "ဘူးသီးတောင်", "postal_code": "11071"},
    {"name": "Thandwe", "mm_name": "သံတွဲ", "postal_code": "11081"},
    {"name": "Toungup", "mm_name": "တောင်ကုတ်", "postal_code": "11091"},
    {"name": "Gwa", "mm_name": "ဂွ", "postal_code": "11101"},
    {"name": "Manaung", "mm_name": "မြေပုံ", "postal_code": "11111"},
    {"name": "Kyaukpyu", "mm_name": "ကျောက်ဖြူ", "postal_code": "11121"},
    {"name": "Ann", "mm_name": "အမ်း", "postal_code": "11131"},
    {"name": "Taungup", "mm_name": "တောင်ကုတ်", "postal_code": "11141"},
    {"name": "Ramree", "mm_name": "ရမ်းဗြဲ", "postal_code": "11151"},
    {"name": "Mrauk-U", "mm_name": "မြောက်ဦး", "postal_code": "11161"}
  ],
  "12": [
    {"name": "Yangon", "mm_name": "ရန်ကုန်", "postal_code": "12011", "districts": [
      {"name": "Ahlon", "mm_name": "အလုံ", "postal_code": "12021"},
      {"name": "Bahan", "mm_name": "ဗဟန်း", "postal_code": "12031"},
      {"name": "Dagon", "mm_name": "ဒဂုံ", "postal_code": "12041"},
      {"name": "Hlaing", "mm_name": "လှိုင်", "postal_code": "12051"},
      {"name": "Kamayut", "mm_name": "ကမာရွတ်", "postal_code": "12061"},
      {"name": "Kyauktada", "mm_name": "ကျောက်တံတား", "postal_code": "12071"},
      {"name": "Kyimyindaing", "mm_name": "ကြည့်မြင်တိုင်", "postal_code": "12081"},
      {"name": "Lanmadaw", "mm_name": "လမ်းမတော်", "postal_code": "12091"},
      {"name": "Latha", "mm_name": "လသာ", "postal_code": "12101"},
      {"name": "Mayangon", "mm_name": "မရမ်းကုန်း", "postal_code": "12111"},
      {"name": "Pabedan", "mm_name": "ပန်းဘဲတန်း", "postal_code": "12121"},
      {"name": "Sanchaung", "mm_name": "စမ်းချောင်း", "postal_code": "12131"},
      {"name": "Seikkan", "mm_name": "ဆိပ်ကမ်း", "postal_code": "12141"},
      {"name": "Tamwe", "mm_name": "တာမွေ", "postal_code": "12151"},
      {"name": "Thaketa", "mm_name": "သာကေတ", "postal_code": "12161"},
      {"name": "Thingangyun", "mm_name": "သင်္ဃန်းကျွန်း", "postal_code": "12171"},
      {"name": "Yankin", "mm_name": "ရန်ကင်း", "postal_code": "12181"},
      {"name": "Dagon Seikkan", "mm_name": "ဒဂုံဆိပ်ကမ်း", "postal_code": "12191"},
      {"name": "Dawbon", "mm_name": "ဒေါပုံ", "postal_code": "12201"},
      {"name": "Mingaladon", "mm_name": "မင်္ဂလာဒုံ", "postal_code": "12211"},
      {"name": "Shwepyitha", "mm_name": "ရွှေပြည်သာ", "postal_code": "12221"},
      {"name": "Hlegu", "mm_name": "လှည်းကူး", "postal_code": "12231"},
      {"name": "Hmawbi", "mm_name": "မှော်ဘီ", "postal_code": "12241"},
      {"name": "Htantabin", "mm_name": "ထန်းတပင်", "postal_code": "12251"},
      {"name": "Taikkyi", "mm_name": "တိုက်ကြီး", "postal_code": "12261"},
      {"name": "Kawhmu", "mm_name": "ကော့မှူး", "postal_code": "12271"},
      {"name": "Kayan", "mm_name": "ခရမ်း", "postal_code": "12281"},
      {"name": "Kungyangon", "mm_name": "ကွမ်းခြံကုန်း", "postal_code": "12291"},
      {"name": "Thanlyin", "mm_name": "သန်လျင်", "postal_code": "12301"},
      {"name": "Thongwa", "mm_name": "သုံးခွ", "postal_code": "12311"},
      {"name": "Twante", "mm_name": "တွံတေး", "postal_code": "12321"},
      {"name": "Cocokyun", "mm_name": "ကိုကိုးကျွန်း", "postal_code": "12331"}
    ]}
  ],
  "13": [
    {"name": "Taunggyi", "mm_name": "တောင်ကြီး", "postal_code": "13011"},
    {"name": "Nyaungshwe", "mm_name": "ညောင်ရွှေ", "postal_code": "13021"},
    {"name": "Hopong", "mm_name": "ဟိုပုန်း", "postal_code": "13031"},
    {"name": "Hsihseng", "mm_name": "ဆီဆိုင်", "postal_code": "13041"},
    {"name": "Kalaw", "mm_name": "ကလော", "postal_code": "13051"},
    {"name": "Pindaya", "mm_name": "ပင်းတယ", "postal_code": "13061"},
    {"name": "Ywangan", "mm_name": "ရွာငံ", "postal_code": "13071"},
    {"name": "Lawksawk", "mm_name": "လောက်ကိုင်", "postal_code": "13081"},
    {"name": "Pekon", "mm_name": "ဖယ်ခုံ", "postal_code": "13091"},
    {"name": "Loilen", "mm_name": "လွိုင်လင်", "postal_code": "13101"},
    {"name": "Lai-Hka", "mm_name": "လဲချား", "postal_code": "13111"},
    {"name": "Nansang", "mm_name": "နမ်းစမ်း", "postal_code": "13121"},
    {"name": "Kunhing", "mm_name": "ကွန်ဟိန်း", "postal_code": "13131"},
    {"name": "Kyethi", "mm_name": "ကျေးသီး", "postal_code": "13141"},
    {"name": "Mong Kung", "mm_name": "မိုင်းကိုင်", "postal_code": "13151"},
    {"name": "Mong Hsu", "mm_name": "မိုင်းရှူး", "postal_code": "13161"},
    {"name": "Mong Nai", "mm_name": "မိုင်းနဲ", "postal_code": "13171"},
    {"name": "Kengtung", "mm_name": "ကျိုင်းတုံ", "postal_code": "13181"},
    {"name": "Mong Khet", "mm_name": "မိုင်းခတ်", "postal_code": "13191"},
    {"name": "Mong Yang", "mm_name": "မိုင်းယန်း", "postal_code": "13201"},
    {"name": "Mong Hpayak", "mm_name": "မိုင်းဖြတ်", "postal_code": "13211"},
    {"name": "Mong Yawng", "mm_name": "မိုင်းယောင်း", "postal_code": "13221"},
    {"name": "Mong Ping", "mm_name": "မိုင်းပြင်း", "postal_code": "13231"},
    {"name": "Mong Tong", "mm_name": "မိုင်းတုံ", "postal_code": "13241"},
    {"name": "Tachileik", "mm_name": "တာချီလိတ်", "postal_code": "13251"},
    {"name": "Mong Hsat", "mm_name": "မိုင်းဆတ်", "postal_code": "13261"},
    {"name": "Mong Ton", "mm_name": "မိုင်းတွန်း", "postal_code": "13271"},
    {"name": "Mong Kyat", "mm_name": "မိုင်းကြတ်", "postal_code": "13281"},
    {"name": "Lashio", "mm_name": "လားရှိုး", "postal_code": "13291"},
    {"name": "Hseni", "mm_name": "သိန္နီ", "postal_code": "13301"},
    {"name": "Tangyan", "mm_name": "တန့်ယန်း", "postal_code": "13311"},
    {"name": "Kutkai", "mm_name": "ကွတ်ခိုင်", "postal_code": "13321"},
    {"name": "Muse", "mm_name": "မူဆယ်", "postal_code": "13331"},
    {"name": "Namhkam", "mm_name": "နမ့်ခမ်း", "postal_code": "13341"},
    {"name": "Mong Mao", "mm_name": "မိုင်းမော", "postal_code": "13351"},
    {"name": "Mabein", "mm_name": "မဘိမ်း", "postal_code": "13361"},
    {"name": "Pangsang", "mm_name": "ပန်ဆန်း", "postal_code": "13371"},
    {"name": "Hopang", "mm_name": "ဟိုပန်း", "postal_code": "13381"},
    {"name": "Pangwaun", "mm_name": "ပန်ဝိုင်", "postal_code": "13391"},
    {"name": "Namtu", "mm_name": "နမ္မတူ", "postal_code": "13401"},
    {"name": "Manton", "mm_name": "မန်တုံ", "postal_code": "13411"},
    {"name": "Kyaukme", "mm_name": "ကျောက်မဲ", "postal_code": "13421"},
    {"name": "Nawnghkio", "mm_name": "နောင်ချို", "postal_code": "13431"},
    {"name": "Hsipaw", "mm_name": "သီပေါ", "postal_code": "13441"},
    {"name": "Mong Long", "mm_name": "မိုင်းလုံ", "postal_code": "13451"},
    {"name": "Mong Mit", "mm_name": "မိုင်းမြတ်", "postal_code": "13461"},
    {"name": "Mong Kaing", "mm_name": "မိုင်းကိုင်", "postal_code": "13471"}
  ],
  "14": [
    {"name": "Pathein", "mm_name": "ပုသိမ်", "postal_code": "14011"},
    {"name": "Kangyidaunk", "mm_name": "ကန်ကြီးတောင်း", "postal_code": "14021"},
    {"name": "Thabaung", "mm_name": "သာပေါင်း", "postal_code": "14031"},
    {"name": "Ngapudaw", "mm_name": "ငပုတော", "postal_code": "14041"},
    {"name": "Kyaungon", "mm_name": "ကျောင်းကုန်း", "postal_code": "14051"},
    {"name": "Yekyi", "mm_name": "ရေကြည်", "postal_code": "14061"},
    {"name": "Hinthada", "mm_name": "ဟင်္သာတ", "postal_code": "14071"},
    {"name": "Zalun", "mm_name": "ဇလွန်", "postal_code": "14081"},
    {"name": "Laymyethna", "mm_name": "လေးမျက်နှာ", "postal_code": "14091"},
    {"name": "Myanaung", "mm_name": "မြန်အောင်", "postal_code": "14101"},
    {"name": "Kyonpyaw", "mm_name": "ကျုံပျော်", "postal_code": "14111"},
    {"name": "Ingapu", "mm_name": "အင်္ဂပူ", "postal_code": "14121"},
    {"name": "Myaungmya", "mm_name": "မြောင်းမြ", "postal_code": "14131"},
    {"name": "Einme", "mm_name": "အိမ်မဲ", "postal_code": "14141"},
    {"name": "Wakema", "mm_name": "ဝါးခယ်မ", "postal_code": "14151"},
    {"name": "Labutta", "mm_name": "လပွတ္တာ", "postal_code": "14161"},
    {"name": "Mawlamyinegyun", "mm_name": "မော်လမြိုင်ကျွန်း", "postal_code": "14171"},
    {"name": "Pyapon", "mm_name": "ဖျာပုံ", "postal_code": "14181"},
    {"name": "Bogale", "mm_name": "ဘိုကလေး", "postal_code": "14191"},
    {"name": "Kyaiklat", "mm_name": "ကျိုက်လတ်", "postal_code": "14201"},
    {"name": "Dedaye", "mm_name": "ဒေးဒရဲ", "postal_code": "14211"},
    {"name": "Nyaungdon", "mm_name": "ညောင်တုန်း", "postal_code": "14221"},
    {"name": "Danubyu", "mm_name": "ဓနုဖြူ", "postal_code": "14231"},
    {"name": "Ma-ubin", "mm_name": "မအူပင်", "postal_code": "14241"},
    {"name": "Pantanaw", "mm_name": "ပန်းတနော်", "postal_code": "14251"},
    {"name": "Kyaunggon", "mm_name": "ကျောင်းကုန်း", "postal_code": "14261"}
  ],
  "15": [
    {"name": "Ottarathiri", "mm_name": "ဥတ္တရသီရိ", "postal_code": "15011"},
    {"name": "Pobbathiri", "mm_name": "ပုဗ္ဗသီရိ", "postal_code": "15021"},
    {"name": "Tatkon", "mm_name": "တပ်ကုန်း", "postal_code": "15031"},
    {"name": "Zeyarthiri", "mm_name": "ဇေယျာသီရိ", "postal_code": "15041"},
    {"name": "Dekkhinathiri", "mm_name": "ဒက္ခိဏသီရိ", "postal_code": "15051"},
    {"name": "Lewe", "mm_name": "လယ်ဝေး", "postal_code": "15061"},
    {"name": "Pyinmana", "mm_name": "ပျဉ်းမနား", "postal_code": "15071"}
  ]
}